NORAD_CAT_ID,OBJECT_NAME,OBJECT_TYPE,EPOCH,MEAN_MOTION,ECCENTRICITY,INCLINATION,RA_OF_ASC_NODE,ARG_OF_PERICENTER,MEAN_ANOMALY,BSTAR,MEAN_MOTION_DOT,MEAN_MOTION_DDOT,TLE_LINE0,TLE_LINE1,TLE_LINE2,SEMIMAJOR_AXIS,PERIOD,APOGEE,PERIGEE,DECAYED
52488.0,STARLINK-3892,PAYLOAD,2024-06-30 15:40:59,15.08847232,9.68e-05,53.2166,309.1064,87.3721,272.7382,3.5892e-05,2.84e-06,0.0,0 STARLINK-3892,1 52488U 22049AP  24182.65346251  .00000284  00000-0  35892-4 0  9998,2 52488  53.2166 309.1064 0000968  87.3721 272.7382 15.08847232119109,6917.858,95.437,540.393,539.054,0.0
52488.0,STARLINK-3892,PAYLOAD,2024-07-01 12:21:00,15.08836444,9.86e-05,53.2185,305.243,108.1577,251.9522,0.00028892,4.313e-05,0.0,0 STARLINK-3892,1 52488U 22049AP  24183.51458604  .00004313  00000-0  28892-3 0  9998,2 52488  53.2185 305.2430 0000986 108.1577 251.9522 15.08836444119394,6917.891,95.438,540.438,539.074,0.0
52488.0,STARLINK-3892,PAYLOAD,2024-07-01 13:56:23,15.08838848,0.0001107,53.2178,304.946,111.7641,248.3469,0.0002933,4.383e-05,0.0,0 STARLINK-3892,1 52488U 22049AP  24183.58082485  .00004383  00000-0  29330-3 0  9990,2 52488  53.2178 304.9460 0001107 111.7641 248.3469 15.08838848119247,6917.884,95.438,540.515,538.983,0.0
52488.0,STARLINK-3892,PAYLOAD,2024-07-01 17:07:08,15.08850181,7.96e-05,53.2164,304.3483,95.5426,264.5657,0.00033909,5.114e-05,0.0,0 STARLINK-3892,1 52488U 22049AP  24183.71329605  .00005114  00000-0  33909-3 0  9993,2 52488  53.2164 304.3483 0000796  95.5426 264.5657 15.08850181119427,6917.849,95.437,540.265,539.164,0.0
52488.0,STARLINK-3892,PAYLOAD,2024-07-02 01:04:05,15.08837602,8.83e-05,53.2181,302.8646,114.2358,245.8726,0.00021832,3.188e-05,0.0,0 STARLINK-3892,1 52488U 22049AP  24184.04450815  .00003188  00000-0  21832-3 0  9999,2 52488  53.2181 302.8646 0000883 114.2358 245.8726 15.08837602119477,6917.888,95.438,540.364,539.142,0.0
52488.0,STARLINK-3892,PAYLOAD,2024-07-02 13:47:10,15.08843787,9.64e-05,53.2172,300.483,95.816,264.2942,3.2868e-05,2.35e-06,0.0,0 STARLINK-3892,1 52488U 22049AP  24184.57442947  .00000235  00000-0  32868-4 0  9996,2 52488  53.2172 300.4830 0000964  95.8160 264.2942 15.08843787119398,6917.869,95.437,540.401,539.067,0.0
52488.0,STARLINK-3892,PAYLOAD,2024-07-02 15:22:33,15.08845381,9.24e-05,53.2167,300.1853,109.1958,250.9134,6.5633e-05,7.57e-06,0.0,0 STARLINK-3892,1 52488U 22049AP  24184.64066688  .00000757  00000-0  65633-4 0  9993,2 52488  53.2167 300.1853 0000924 109.1958 250.9134 15.08845381119403,6917.864,95.437,540.368,539.09,0.0
52488.0,STARLINK-3892,PAYLOAD,2024-07-03 13:38:00,15.08808386,0.000115,53.2179,296.025,100.1694,259.9428,-0.00028054,-4.746e-05,0.0,0 STARLINK-3892,1 52488U 22049AP  24185.56806095 -.00004746  00000-0 -28054-3 0  9998,2 52488  53.2179 296.0250 0001150 100.1694 259.9428 15.08808386119702,6917.977,95.44,540.638,539.046,0.0
52488.0,STARLINK-3892,PAYLOAD,2024-07-03 16:48:46,15.08818388,0.0001002,53.2173,295.4267,106.1054,254.0049,-0.00029986,-5.054e-05,0.0,0 STARLINK-3892,1 52488U 22049AP  24185.70053534 -.00005054  00000-0 -29986-3 0  9994,2 52488  53.2173 295.4267 0001002 106.1054 254.0049 15.08818388119729,6917.946,95.439,540.505,539.118,0.0
52488.0,STARLINK-3892,PAYLOAD,2024-07-04 00:45:40,15.08837846,8.88e-05,53.2169,293.9461,96.688,263.4213,-0.00015863,-2.811e-05,0.0,0 STARLINK-3892,1 52488U 22049AP  24186.03172137 -.00002811  00000-0 -15863-3 0  9999,2 52488  53.2169 293.9461 0000888  96.6880 263.4213 15.08837846119776,6917.887,95.438,540.366,539.138,0.0
52488.0,STARLINK-3892,PAYLOAD,2024-07-04 13:28:44,15.08847763,0.000118,53.2182,291.5621,107.933,252.1791,0.00018557,2.667e-05,0.0,0 STARLINK-3892,1 52488U 22049AP  24186.56162946  .00002667  00000-0  18557-3 0  9994,2 52488  53.2182 291.5621 0001180 107.9330 252.1791 15.08847763119859,6917.857,95.437,540.538,538.905,0.0
52488.0,STARLINK-3892,PAYLOAD,2024-07-04 16:39:30,15.08858063,0.0001241,53.2168,290.9665,116.7741,243.3378,0.00014845,2.077e-05,0.0,0 STARLINK-3892,1 52488U 22049AP  24186.69410097  .00002077  00000-0  14845-3 0  9992,2 52488  53.2168 290.9665 0001241 116.7741 243.3378 15.08858063119876,6917.825,95.436,540.549,538.832,0.0
52488.0,STARLINK-3892,PAYLOAD,2024-07-05 00:36:26,15.08851126,0.0001389,53.2164,289.4769,122.4884,237.6243,9.1052e-05,1.162e-05,0.0,0 STARLINK-3892,1 52488U 22049AP  24187.02530464  .00001162  00000-0  91052-4 0  9991,2 52488  53.2164 289.4769 0001389 122.4884 237.6243 15.08851126119921,6917.846,95.437,540.672,538.75,0.0
52488.0,STARLINK-3892,PAYLOAD,2024-07-05 13:19:31,15.08842084,0.0001243,53.2176,287.1022,98.2549,261.8584,0.00044147,6.745e-05,0.0,0 STARLINK-3892,1 52488U 22049AP  24187.55522531  .00006745  00000-0  44147-3 0  9999,2 52488  53.2176 287.1022 0001243  98.2549 261.8584 15.08842084119849,6917.874,95.437,540.599,538.879,0.0
52488.0,STARLINK-3892,PAYLOAD,2024-07-06 13:10:18,15.08848202,0.000119,53.2178,282.6409,98.4554,261.6573,-2.2692e-05,-6.49e-06,0.0,0 STARLINK-3892,1 52488U 22049AP  24188.54882952 -.00000649  00000-0 -22692-4 0  9996,2 52488  53.2178 282.6409 0001190  98.4554 261.6573 15.08848202120159,6917.855,95.437,540.544,538.897,0.0
52488.0,STARLINK-3892,PAYLOAD,2024-07-06 22:42:36,15.08853127,0.0001466,53.2178,280.8572,99.5433,260.5725,0.00037408,5.673e-05,0.0,0 STARLINK-3892,1 52488U 22049AP  24188.94625481  .00005673  00000-0  37408-3 0  9992,2 52488  53.2178 280.8572 0001466  99.5433 260.5725 15.08853127120210,6917.84,95.437,540.719,538.691,0.0
52488.0,STARLINK-3892,PAYLOAD,2024-07-07 09:50:19,15.08829788,0.0001203,53.2178,278.7757,92.3748,267.7382,-0.00015403,-2.738e-05,0.0,0 STARLINK-3892,1 52488U 22049AP  24189.40995170 -.00002738  00000-0 -15403-3 0  9991,2 52488  53.2178 278.7757 0001203  92.3748 267.7382 15.08829788120281,6917.912,95.438,540.609,538.944,0.0
52488.0,STARLINK-3892,PAYLOAD,2024-07-08 12:51:52,15.08834744,0.0001113,53.2166,273.7235,84.2072,275.9047,-4.5347e-05,-1.009e-05,0.0,0 STARLINK-3892,1 52488U 22049AP  24190.53602227 -.00001009  00000-0 -45347-4 0  9996,2 52488  53.2166 273.7235 0001113  84.2072 275.9047 15.08834744120450,6917.896,95.438,540.531,538.991,0.0
52488.0,STARLINK-3892,PAYLOAD,2024-07-08 22:24:10,15.08839038,0.0001171,53.2166,271.9396,86.7143,273.3983,-0.0001456,-2.604e-05,0.0,0 STARLINK-3892,1 52488U 22049AP  24190.93346049 -.00002604  00000-0 -14560-3 0  9991,2 52488  53.2166 271.9396 0001171  86.7143 273.3983 15.08839038120359,6917.883,95.438,540.558,538.938,0.0
52488.0,STARLINK-3892,PAYLOAD,2024-07-09 04:45:41,15.0887443,9.81e-05,53.2164,270.7501,65.0782,295.0312,-0.001308,-0.00021063,0.0,0 STARLINK-3892,1 52488U 22049AP  24191.19839828 -.00021063  00000-0 -13080-2 0  9997,2 52488  53.2164 270.7501 0000981  65.0782 295.0312 15.08874430120553,6917.775,95.435,540.319,538.962,0.0
52488.0,STARLINK-3892,PAYLOAD,2024-07-09 12:42:40,15.08830716,0.0001151,53.2163,269.2636,82.7167,277.3956,0.00026953,4.003e-05,0.0,0 STARLINK-3892,1 52488U 22049AP  24191.52962963  .00004003  00000-0  26953-3 0  9998,2 52488  53.2163 269.2636 0001151  82.7167 277.3956 15.08830716120609,6917.909,95.438,540.57,538.978,0.0
52488.0,STARLINK-3892,PAYLOAD,2024-07-10 14:08:50,15.08845239,0.0001164,53.2152,264.5054,82.4064,277.706,0.00032403,4.874e-05,0.0,0 STARLINK-3892,1 52488U 22049AP  24192.58946870  .00004874  00000-0  32403-3 0  9997,2 52488  53.2152 264.5054 0001164  82.4064 277.7060 15.08845239120602,6917.864,95.437,540.535,538.924,0.0
52488.0,STARLINK-3892,PAYLOAD,2024-07-11 04:27:18,15.08838704,0.000164,53.2153,261.8282,87.3543,272.7637,0.00014875,2.08e-05,0.0,0 STARLINK-3892,1 52488U 22049AP  24193.18563347  .00002080  00000-0  14875-3 0  9998,2 52488  53.2153 261.8282 0001640  87.3543 272.7637 15.08838704120852,6917.884,95.438,540.884,538.615,0.0
52488.0,STARLINK-3892,PAYLOAD,2024-07-11 10:48:51,15.08837236,0.0001326,53.2155,260.6385,89.8223,270.2922,0.00010606,1.4e-05,0.0,0 STARLINK-3892,1 52488U 22049AP  24193.45059441  .00001400  00000-0  10606-3 0  9996,2 52488  53.2155 260.6385 0001326  89.8223 270.2922 15.08837236120734,6917.889,95.438,540.671,538.837,0.0
52488.0,STARLINK-3892,PAYLOAD,2024-07-12 10:39:38,15.08845581,0.0001502,53.2166,256.1777,97.1652,262.9511,0.00015869,2.239e-05,0.0,0 STARLINK-3892,1 52488U 22049AP  24194.44419146  .00002239  00000-0  15869-3 0  9995,2 52488  53.2166 256.1777 0001502  97.1652 262.9511 15.08845581121044,6917.863,95.437,540.767,538.689,0.0
52488.0,STARLINK-3892,PAYLOAD,2024-07-13 12:05:47,15.08856976,0.0001271,53.2158,251.4133,114.1981,245.9144,0.00024519,3.618e-05,0.0,0 STARLINK-3892,1 52488U 22049AP  24195.50402230  .00003618  00000-0  24519-3 0  9993,2 52488  53.2158 251.4133 0001271 114.1981 245.9144 15.08856976121208,6917.829,95.436,540.573,538.814,0.0
52488.0,STARLINK-3892,PAYLOAD,2024-07-14 10:21:12,15.08839459,0.0001144,53.2149,247.2539,95.0995,265.0128,4.5258e-05,4.33e-06,0.0,0 STARLINK-3892,1 52488U 22049AP  24196.43139134  .00000433  00000-0  45258-4 0  9992,2 52488  53.2149 247.2539 0001144  95.0995 265.0128 15.08839459121349,6917.882,95.438,540.538,538.956,0.0
52488.0,STARLINK-3892,PAYLOAD,2024-07-14 19:53:30,15.08840402,0.0001146,53.215,245.47,94.6374,265.4749,4.7417e-05,4.67e-06,0.0,0 STARLINK-3892,1 52488U 22049AP  24196.82883092  .00000467  00000-0  47417-4 0  9990,2 52488  53.2150 245.4700 0001146  94.6374 265.4749 15.08840402121241,6917.879,95.438,540.537,538.951,0.0
52488.0,STARLINK-3892,PAYLOAD,2024-07-15 10:11:59,15.08839035,0.0001186,53.2158,242.7959,100.896,259.2166,6.7953e-05,7.94e-06,0.0,0 STARLINK-3892,1 52488U 22049AP  24197.42499431  .00000794  00000-0  67953-4 0  9997,2 52488  53.2158 242.7959 0001186 100.8960 259.2166 15.08839035121334,6917.883,95.438,540.569,538.928,0.0
52488.0,STARLINK-3892,PAYLOAD,2024-07-15 19:44:18,15.0884704,0.0001205,53.2159,241.0114,95.7256,264.3873,-6.4213e-05,-1.31e-05,0.0,0 STARLINK-3892,1 52488U 22049AP  24197.82243068 -.00001310  00000-0 -64213-4 0  9997,2 52488  53.2159 241.0114 0001205  95.7256 264.3873 15.08847040121553,6917.859,95.437,540.557,538.89,0.0
